#cP2017 12 20  0  0  0.00000000      96 ORBIT IGS14 HLM  IGS
## 1980 259200.00000000   900.00000000 58107 0.0000000000000
+   32   G01G02G03G04G05G06G07G08G09G10G11G12G13G14G15G16G17
+        G18G19G20G21G22G23G24G25G26G27G28G29G30G31G32  0  0
+          0  0  0  0  0  0  0  0  0  0  0  0  0  0  0  0  0
+          0  0  0  0  0  0  0  0  0  0  0  0  0  0  0  0  0
+          0  0  0  0  0  0  0  0  0  0  0  0  0  0  0  0  0
++         2  2  2  0  2  2  2  2  2  2  2  2  2  2  2  2  2
++         2  2  2  2  2  2  2  2  2  2  2  2  2  2  2  0  0
++         0  0  0  0  0  0  0  0  0  0  0  0  0  0  0  0  0
++         0  0  0  0  0  0  0  0  0  0  0  0  0  0  0  0  0
++         0  0  0  0  0  0  0  0  0  0  0  0  0  0  0  0  0
%c G  cc GPS ccc cccc cccc cccc cccc ccccc ccccc ccccc ccccc
%c cc cc ccc ccc cccc cccc cccc cccc ccccc ccccc ccccc ccccc
%f  1.2500000  1.025000000  0.00000000000  0.000000000000000
%f  0.0000000  0.000000000  0.00000000000  0.000000000000000
%i    0    0    0    0      0      0      0      0         0
%i    0    0    0    0      0      0      0      0         0
/* RAPID ORBIT COMBINATION FROM WEIGHTED AVERAGE OF:        
/* cod emr esa gfz jpl ngs sio usn whu                      
/* REFERENCED TO IGS TIME (IGST) AND TO WEIGHTED MEAN POLE: 
/* PCV:IGS14_1977 OL/AL:FES2004  NONE     Y  ORB:CMB CLK:CMB
*  2017 12 20  8 15  0.00000000
PG01  18023.047711   6145.432119  18497.898069    -18.058385  5  5  6  93       
PG02 -14169.242398 -22653.766795    464.107784    250.608926  5  7  6  97       
PG03  18130.838455  -5107.227415  18684.884879    -24.094281  6  6  4  90       
PG04  -6314.266966  23514.320916 -10497.157787 999999.999999
PG05  -8191.359033 -15196.749234 -20232.773442    -19.262048  7  5  2  85       
PG06  -5825.531191 -23903.625316  10015.636893    413.605213  9  4  4  68       
PG07  11544.019464 -10125.199822 -21430.275185    263.416473  6  6  8 118       
PG08  24411.487028   5881.732397  -8785.335575    -84.739375  5  5  7 100       
PG09  21830.488646  -8887.277987 -12288.818513    485.041906  6  6  5 114       
PG10  -9889.995273  24056.793146   5008.560878    132.566283  6  7  6  83       
PG11  22999.941972   6410.093887  10941.172250   -731.255056  6  4  5 116       
PG12 -16942.199420   1397.421793  20182.537714    359.537858  6  5  4  89       
PG13 -18702.854161 -12284.172192 -14416.110241    -94.869921  9  9  7 105       
PG14   3069.015382  15445.250766  21685.473300    -90.903613  3  6  7  93       
PG15 -25482.680595  -3728.954363  -7471.729368   -357.403951  8 10  9  97       
PG16   6874.734470  14545.333246 -21174.449122     35.233443  7  8  8  91       
PG17   7309.679228 -14096.677733  21648.179357   -136.881609  6  6  5  51       
PG18 -15217.656060  20838.209733  -5302.215734    633.520816  3  8  5 106       
PG19  -1184.331873 -14799.499948  21729.862532   -468.843481  6  6  6  61       
PG20 -17534.009533   2502.903147 -19934.381207    496.064949  9  6  7 110       
PG21  -9463.795238  12835.771409 -20446.460409   -450.653582  4  6  7 105       
PG22  16320.257511   2919.439748  20990.838842   -228.485108  5  7  6  82       
PG23  26707.736607  -1253.425776  -1472.215912   -219.008347  8  7  6  82       
PG24 -19211.729238  -8477.819872  16322.849437    -43.681840  4  7  5  99       
PG25 -18261.005848  14352.705174  12513.057489   -508.705005  5  8  5 130       
PG26   -798.363344  22202.680695 -14460.804566   -318.459952  7  2  6 110       
PG27  15231.494076  12268.559617 -18136.943456    357.286394  4  5  6 107       
PG28  13531.037681 -22745.507892   3029.811180    672.567407  3  3  3  99       
PG29 -24703.784766   4269.141312  -8766.078369    522.721163  4  6  5 116       
PG30   4925.033376 -18949.705749 -17874.078839    119.366751  7  5  6 124       
PG31   5576.396832  24078.654037   9192.007595    154.286084  5  8  4 105       
PG32  -5358.740347  14995.306198  21268.733618   -530.546337  3  5  7 108       
*  2017 12 20  8 30  0.00000000
PG01  18974.001650   7947.023450  16820.576530    -18.060621  5  4  6 100       
PG02 -13864.428195 -22676.290113   3268.921003    250.599987  6  6  6  92       
PG03  17180.405857  -3099.507866  19981.584725    -24.088665  6  6  4  98       
PG04  -6996.420457  24305.310702  -7850.456991 999999.999999
PG05  -7050.817748 -17127.135412 -19062.992406    -19.261354  7  5  3  84       
PG06  -4981.931482 -22917.403778  12480.308835    413.605867  9  4  3  75       
PG07  12848.204216  -7980.836830 -21630.594253    263.411472  6  6  8 123       
PG08  23266.564945   6128.069210 -11327.148699    -84.740161  5  5  7  96       
PG09  23101.896708  -8699.677878  -9850.381318    485.045468  5  5  6 106       
PG10 -10317.136884  24293.557821   2184.994684    132.572131  6  6  6  81       
PG11  23763.131075   7413.681822   8520.840787   -731.256476  6  5  4 116       
PG12 -15736.408083   -678.181111  21180.415634    359.536260  6  6  4  87       
PG13 -16949.206775 -12290.096121 -16453.522665    -94.869853  9  8  6 114       
PG14    635.001167  15342.675813  21953.298911    -90.904248  3  6  7  95       
PG15 -24549.091033  -4115.426639  -9996.615317   -357.404128  8 10  9  72       
PG16   5535.452199  16463.592684 -20092.960677     35.233355  7  8  8  91       
PG17   9652.538218 -13987.560187  20754.663343   -136.878970  6  5  4  59       
PG18 -15183.839673  19929.511986  -7954.473649    633.520797  4  7  5 102       
PG19   1360.458596 -14641.678777  21843.405375   -468.841563  5  5  5  54       
PG20 -16746.809798    328.245686 -20758.467311    496.066096  9  6  8 111       
PG21 -10936.487502  10767.025847 -20889.312230   -450.649717  4  5  7 109       
PG22  15335.529983   5092.066792  21317.661756   -228.496587  5  6  6  78       
PG23  26754.559860   -983.571198   1324.146170   -219.008348  8  7  6  79       
PG24 -20028.225474 -10056.692297  14362.958619    -43.682352  4  7  5 103       
PG25 -17662.801419  12867.079848  14776.404414   -508.710607  5  8  5 113       
PG26  -1697.275228  23461.925052 -12211.499628   -318.447066  7  2  6  94       
PG27  13097.859237  12433.227828 -19614.388313    357.288955  4  5  6  89       
PG28  13738.649265 -22741.498774    131.193025    672.569914  4  2  3  98       
PG29 -25541.556857   4061.047395  -6034.428742    522.716026  4  6  5 115       
PG30   6080.566421 -17145.449041 -19296.365187    119.363984  7  5  6 128       
PG31   4770.050088  23155.682170  11724.957221    154.283735  5  8  4 102       
PG32  -7747.980223  15006.421227  20504.575312   -530.547763  3  5  7 108       
*  2017 12 20  8 45  0.00000000
PG01  19902.082015   9522.596288  14854.180823    -18.062840  6  4  6  76       
PG02 -13373.856102 -22467.372040   6018.884002    250.590899  7  6  6  96       
PG03  16281.547000   -930.019836  20933.426829    -24.083037  6  6  4  88       
PG04  -7498.830755  24856.198904  -5067.481646 999999.999999
PG05  -6067.810294 -18976.307161 -17565.885268    -19.260137  8  6  5  85       
PG06  -3933.065448 -21759.550185  14730.352957    413.606524  9  4  2  90       
PG07  14259.240816  -5909.133598 -21451.679480    263.406850  6  6  8 127       
PG08  21860.523805   6463.219645 -13674.730052    -84.741196  5  6  7  88       
PG09  24097.655894  -8548.906990  -7242.761787    485.049011  5  5  6 105       
PG10 -10596.039488  24258.970886   -676.502498    132.578002  5  6  6  54       
PG11  24326.978031   8230.574494   5949.613983   -731.257350  6  5  5 118       
PG12 -14604.444594  -2898.455565  21806.992388    359.534697  7  6  5  98       
PG13 -14985.151518 -12383.087586 -18209.939545    -94.869924  9  8  6 110       
PG14  -1811.918570  15369.334340  21853.028619    -90.904855  4  6  7  82       
PG15 -23366.997737  -4589.810697 -12354.468267   -357.404299  8  9  9 101       
PG16   4373.603313  18333.386112 -18665.722259     35.232854  7  8  8 100       
PG17  11881.480287 -14005.171567  19514.470845   -136.876865  5  5  3  64       
PG18 -15083.115568  18743.523353 -10465.479490    633.520986  5  6  5 102       
PG19   3898.728752 -14622.082943  21571.267630   -468.839377  5  5  5  58       
PG20 -16039.375369  -1948.822264 -21229.883527    496.067090  8  6  8 106       
PG21 -12522.352774   8746.106564 -20945.562839   -450.646190  4  5  6 110       
PG22  14447.613379   7323.798925  21285.396936   -228.508032  5  5  6  88       
PG23  26505.087260   -688.121233   4098.356827   -219.008530  8  7  6  73       
PG24 -20780.352201 -11403.613933  12157.500352    -43.682508  5  7  4  95       
PG25 -17041.744105  11130.393868  16780.211217   -508.716174  4  7  4 111       
PG26  -2421.620690  24521.945602  -9750.702744   -318.434278  7  2  7  94       
PG27  10827.762159  12729.045759 -20758.155144    357.291406  4  5  5  95       
PG28  13787.535933 -22460.718154  -2769.614250    672.573415  4  3  3  96       
PG29 -26073.796188   3890.459410  -3198.881404    522.711429  5  6  5 112       
PG30   7398.160999 -15280.740719 -20385.086979    119.361283  7  5  6 125       
PG31   3766.721772  22044.491270  14052.206064    154.281701  5  7  4 109       
PG32 -10028.234330  15130.576940  19387.756461   -530.549180  3  4  7 101       
EOF
